[{"OBJECT_NAME":"STARLINK-34289","OBJECT_ID":"2025-117Y","EPOCH":"2026-03-09T08:26:05.928000","MEAN_MOTION":15.30200079,"ECCENTRICITY":0.00011185,"INCLINATION":53.1597,"RA_OF_ASC_NODE":41.1902,"ARG_OF_PERICENTER":88.7771,"MEAN_ANOMALY":271.3357,"EPHEMERIS_TYPE":0,"CLASSIFICATION_TYPE":"U","NORAD_CAT_ID":64225,"ELEMENT_SET_NO":999,"REV_AT_EPOCH":4450,"BSTAR":0.00064477026,"MEAN_MOTION_DOT":0.00018785,"MEAN_MOTION_DDOT":0},{"OBJECT_NAME":"OBJECT L","OBJECT_ID":"2024-024L","EPOCH":"2026-03-09T22:36:05.522976","MEAN_MOTION":15.29373491,"ECCENTRICITY":0.00073185,"INCLINATION":97.3169,"RA_OF_ASC_NODE":137.7038,"ARG_OF_PERICENTER":167.6369,"MEAN_ANOMALY":192.5052,"EPHEMERIS_TYPE":0,"CLASSIFICATION_TYPE":"U","NORAD_CAT_ID":58927,"ELEMENT_SET_NO":999,"REV_AT_EPOCH":9318,"BSTAR":0.00043092344,"MEAN_MOTION_DOT":0.00012217,"MEAN_MOTION_DDOT":0}]
